MEAN_MOTION;ECCENTRICITY;INCLINATION;RA_OF_ASC_NODE;ARG_OF_PERICENTER;MEAN_ANOMALY;BSTAR;MEAN_MOTION_DOT;MEAN_MOTION_DDOT;TYPE
0.98107606;0.002975;6.189;59.581;236.483;216.5782;0;-2.4E-7;0;Intelsat
0.98107723;0.0029748;6.1896;59.5794;236.4927;321.8446;0;-2.9E-7;0;Intelsat
0.98107998;0.0029703;6.191;59.5753;236.5244;231.038;0;-4.5E-7;0;Intelsat
0.98108364;0.0029664;6.1926;59.5707;236.5713;172.6671;0;-6.7E-7;0;Intelsat
0.98108582;0.0029662;6.1934;59.5683;236.5843;329.5659;0;-7.9E-7;0;Intelsat
0.98108761;0.0029633;6.1942;59.566;236.6229;121.4911;0;-9.0E-7;0;Intelsat
0.98108789;0.0029628;6.1943;59.5656;236.6211;146.79;0;-9.2E-7;0;Intelsat
0.98109238;0.002959;6.196;59.5605;236.6793;115.8548;0;-1.18E-6;0;Intelsat
0.9810967;0.0029549;6.198;59.5548;236.7318;135.5574;0;-1.47E-6;0;Intelsat
0.98110015;0.0029516;6.2;59.5491;236.7821;155.2326;0;-1.7E-6;0;Intelsat
0.98110298;0.0029478;6.202;59.5436;236.8396;174.6804;0;-1.89E-6;0;Intelsat
0.98110443;0.0029449;6.2038;59.5389;236.8994;143.9876;0;-1.99E-6;0;Intelsat
0.98110485;0.0029418;6.2056;59.5339;236.965;138.3735;0;-2.03E-6;0;Intelsat
0.98110453;0.0029412;6.2064;59.5319;236.9818;283.7825;0;-2.03E-6;0;Intelsat
0.98110396;0.0029381;6.2076;59.5287;237.0414;146.3442;0;-2.0E-6;0;Intelsat
0.98110216;0.0029348;6.2096;59.5237;237.1195;152.4092;0;-1.91E-6;0;Intelsat
0.98110128;0.0029332;6.2103;59.5219;237.1557;284.7398;0;-1.87E-6;0;Intelsat
0.98110076;0.0029326;6.2106;59.5209;237.1657;352.6731;0;-1.84E-6;0;Intelsat
0.98109953;0.0029309;6.2115;59.5188;237.2032;146.7619;0;-1.77E-6;0;Intelsat
0.98109818;0.0029281;6.2124;59.5165;237.257;322.4862;0;-1.68E-6;0;Intelsat
0.98109633;0.0029256;6.2134;59.5141;237.2967;141.056;0;-1.57E-6;0;Intelsat
0.98109395;0.0029215;6.2146;59.5109;237.3627;10.5255;0;-1.44E-6;0;Intelsat
0.98109271;0.0029203;6.2153;59.5093;237.3882;135.3921;0;-1.35E-6;0;Intelsat
0.98108909;0.0029149;6.2173;59.5042;237.4847;155.0556;0;-1.09E-6;0;Intelsat
0.98108596;0.0029086;6.2191;59.4998;237.5639;124.1083;0;-8.7E-7;0;Intelsat
0.98108571;0.0029083;6.2193;59.4994;237.5737;149.3881;0;-8.5E-7;0;Intelsat
0.9810829;0.0029023;6.2211;59.495;237.6467;118.4411;0;-6.4E-7;0;Intelsat
0.98107994;0.0028952;6.2231;59.4901;237.7347;138.0907;0;-4.2E-7;0;Intelsat
0.98107811;0.0028885;6.2251;59.4855;237.8056;132.424;0;-2.6E-7;0;Intelsat
0.9810776;0.0028831;6.2264;59.4826;237.8611;2.9638;0;-1.8E-7;0;Intelsat
0.9810776;0.0028819;6.2269;59.4813;237.8648;101.5225;0;-1.5E-7;0;Intelsat
0.98107719;0.0028768;6.2283;59.4781;237.9189;354.4991;0;-1.1E-7;0;Intelsat
0.98107739;0.00287;6.2302;59.4736;237.9706;345.7225;0;-1.0E-7;0;Intelsat
0.981078;0.0028673;6.231;59.4716;237.9856;140.8277;0;-1.1E-7;0;Intelsat
0.98108153;0.0028573;6.2338;59.4645;238.0417;312.3882;0;-2.6E-7;0;Intelsat
0.98108333;0.0028535;6.2349;59.4618;238.057;154.9227;0;-3.6E-7;0;Intelsat
0.98108503;0.0028512;6.2359;59.4592;238.062;343.4295;0;-4.6E-7;0;Intelsat
0.98108841;0.0028456;6.2377;59.4545;238.0725;325.8632;0;-6.8E-7;0;Intelsat
0.98109057;0.002842;6.2386;59.452;238.0869;143.7803;0;-8.1E-7;0;Intelsat
0.98109322;0.0028394;6.2399;59.4486;238.089;20.1641;0;-1.0E-6;0;Intelsat
0.9810967;0.0028352;6.2414;59.4445;238.0819;315.4058;0;-1.24E-6;0;Intelsat
0.98109877;0.002832;6.2423;59.442;238.0969;132.623;0;-1.38E-6;0;Intelsat
0.98110061;0.0028307;6.2432;59.4396;238.082;297.0887;0;-1.51E-6;0;Intelsat
0.98110428;0.0028272;6.2452;59.4343;238.0888;323.7564;0;-1.78E-6;0;Intelsat
0.98110567;0.0028249;6.2461;59.4321;238.1066;121.4596;0;-1.88E-6;0;Intelsat
0.98110714;0.0028238;6.2471;59.4292;238.0936;324.0161;0;-1.99E-6;0;Intelsat
0.98110863;0.0028207;6.2491;59.4241;238.1046;338.6609;0;-2.14E-6;0;Intelsat
0.98110909;0.0028183;6.251;59.4191;238.116;340.6898;0;-2.21E-6;0;Intelsat
0.98110803;0.0028152;6.2529;59.4144;238.1286;336.0942;0;-2.19E-6;0;Intelsat
0.98110581;0.0028125;6.2547;59.4098;238.1478;327.0039;0;-2.09E-6;0;Intelsat
0.98110233;0.0028092;6.2566;59.4053;238.1738;321.4083;0;-1.92E-6;0;Intelsat
0.981098;0.0028064;6.2585;59.4008;238.2054;315.8167;0;-1.68E-6;0;Intelsat
0.98109281;0.0028027;6.2605;59.3962;238.2481;335.4988;0;-1.39E-6;0;Intelsat
0.9810903;0.0028009;6.2614;59.3942;238.2717;152.7317;0;-1.24E-6;0;Intelsat
0.98108786;0.0027986;6.2624;59.3919;238.2961;329.9092;0;-1.09E-6;0;Intelsat
0.9810875;0.0027982;6.2625;59.3916;238.2978;357.0531;0;-1.07E-6;0;Intelsat
0.98108556;0.002797;6.2633;59.3898;238.318;147.1171;0;-9.4E-7;0;Intelsat
0.98108299;0.0027949;6.2643;59.3875;238.3507;334.9404;0;-7.9E-7;0;Intelsat
0.98108106;0.0027934;6.2652;59.3854;238.3688;141.5059;0;-6.5E-7;0;Intelsat
0.98107902;0.0027906;6.2661;59.3833;238.4065;318.6527;0;-5.2E-7;0;Intelsat
0.98107581;0.0027852;6.2681;59.3789;238.4626;313.0083;0;-3.0E-7;0;Intelsat
0.98107417;0.0027784;6.2701;59.3743;238.5155;328.8475;0;-1.3E-7;0;Intelsat
0.98107417;0.0027784;6.2701;59.3743;238.5155;328.8475;0;-1.3E-7;0;Intelsat
0.98107397;0.0027728;6.2719;59.3703;238.5653;301.7573;0;-5.0E-8;0;Intelsat
0.98107503;0.0027662;6.2738;59.3661;238.6068;296.1353;0;-4.0E-8;0;Intelsat
0.98107529;0.0027645;6.2742;59.3651;238.6049;9.0021;0;-5.0E-8;0;Intelsat
0.98107724;0.00276;6.2757;59.3618;238.6434;290.4824;0;-1.1E-7;0;Intelsat
0.98108062;0.0027538;6.2776;59.3576;238.6717;284.8738;0;-2.5E-7;0;Intelsat
0.98108347;0.0027502;6.2788;59.355;238.6748;152.754;0;-3.7E-7;0;Intelsat
0.98108347;0.0027502;6.2788;59.355;238.6748;152.754;0;-3.7E-7;0;Intelsat
0.9810852;0.002747;6.2796;59.3532;238.6963;304.6061;0;-4.7E-7;0;Intelsat
0.98108787;0.0027436;6.2807;59.3508;238.6965;147.1313;0;-6.0E-7;0;Intelsat
0.98108931;0.0027413;6.2814;59.3493;238.709;273.7018;0;-6.9E-7;0;Intelsat
0.98109229;0.0027371;6.2826;59.3465;238.7095;141.5495;0;-8.5E-7;0;Intelsat
0.98109229;0.0027371;6.2826;59.3465;238.7095;141.5495;0;-8.5E-7;0;Intelsat
0.98109669;0.0027306;6.2844;59.3423;238.7062;135.9931;0;-1.11E-6;0;Intelsat
0.98109863;0.0027276;6.2854;59.3401;238.6982;314.3687;0;-1.24E-6;0;Intelsat
0.98110231;0.0027214;6.2873;59.3354;238.6778;332.9756;0;-1.48E-6;0;Intelsat
0.98110366;0.0027178;6.2883;59.3331;238.6704;150.21;0;-1.58E-6;0;Intelsat
0.98110594;0.0027115;6.291;59.3262;238.6137;323.2629;0;-1.81E-6;0;Intelsat
0.98110614;0.0027081;6.2919;59.3239;238.6045;139.149;0;-1.85E-6;0;Intelsat
0.98110583;0.0027042;6.2938;59.3193;238.5661;133.6081;0;-1.89E-6;0;Intelsat
0.9811051;0.0027033;6.2948;59.3167;238.5329;336.1715;0;-1.88E-6;0;Intelsat
0.98110483;0.0027029;6.2949;59.3162;238.5356;8.0672;0;-1.87E-6;0;Intelsat
0.98110426;0.0027004;6.2957;59.3143;238.5212;153.4103;0;-1.85E-6;0;Intelsat
0.981103;0.0027001;6.2966;59.312;238.4941;330.6388;0;-1.81E-6;0;Intelsat
0.98110031;0.0026971;6.2984;59.3074;238.4564;329.5249;0;-1.69E-6;0;Intelsat
0.98109889;0.002695;6.2993;59.3052;238.4515;142.3486;0;-1.61E-6;0;Intelsat
0.98109715;0.0026947;6.3002;59.303;238.4247;319.5453;0;-1.52E-6;0;Intelsat
0.98109326;0.0026922;6.3022;59.2982;238.3985;340.4172;0;-1.3E-6;0;Intelsat
0.98108957;0.0026899;6.304;59.2938;238.3723;333.7957;0;-1.07E-6;0;Intelsat
0.9810849;0.0026865;6.3067;59.2873;238.3561;145.4602;0;-7.5E-7;0;Intelsat
0.98108195;0.0026838;6.3086;59.2831;238.341;139.9205;0;-5.5E-7;0;Intelsat
0.98108065;0.0026823;6.3097;59.2806;238.3306;352.5629;0;-4.5E-7;0;Intelsat
0.9810789;0.00268;6.3113;59.277;238.3326;311.5266;0;-3.3E-7;0;Intelsat
0.98107841;0.0026767;6.3134;59.2723;238.3464;350.4146;0;-2.2E-7;0;Intelsat
0.98107853;0.0026734;6.3151;59.2683;238.3622;329.4752;0;-1.9E-7;0;Intelsat
0.98107932;0.0026696;6.3169;59.2641;238.382;319.1976;0;-2.1E-7;0;Intelsat
0.98108136;0.0026651;6.3188;59.2598;238.4015;331.5604;0;-2.9E-7;0;Intelsat
0.98108453;0.0026597;6.3209;59.2552;238.403;6.7798;0;-4.4E-7;0;Intelsat
0.98108773;0.0026548;6.3226;59.2514;238.4162;334.6067;0;-6.0E-7;0;Intelsat
0.98109336;0.0026476;6.3251;59.2458;238.385;89.681;0;-8.8E-7;0;Intelsat
0.98109647;0.0026431;6.3265;59.2428;238.398;355.0112;0;-1.06E-6;0;Intelsat
0.98109937;0.0026396;6.3279;59.2396;238.3924;259.85;0;-1.23E-6;0;Intelsat
0.98110424;0.0026299;6.3303;59.2343;238.3272;357.5185;0;-1.52E-6;0;Intelsat
0.98110683;0.0026251;6.3319;59.2306;238.2981;311.534;0;-1.7E-6;0;Intelsat
0.98110908;0.0026191;6.3339;59.2261;238.2559;345.2997;0;-1.86E-6;0;Intelsat
0.98110971;0.0026132;6.3359;59.221;238.2026;32.4645;0;-1.96E-6;0;Intelsat
0.98110942;0.0026095;6.3374;59.2172;238.1427;334.8365;0;-1.98E-6;0;Intelsat
0.98110686;0.0026041;6.3395;59.2115;238.0505;49.0322;0;-1.92E-6;0;Intelsat
0.98110444;0.0026015;6.3409;59.2079;237.9754;323.9532;0;-1.83E-6;0;Intelsat
0.98110037;0.0025988;6.3427;59.2031;237.8963;320.3437;0;-1.65E-6;0;Intelsat
0.98110037;0.0025988;6.3427;59.2031;237.8963;320.3437;0;-1.65E-6;0;Intelsat
0.98109545;0.0025962;6.3445;59.1984;237.8072;312.9804;0;-1.43E-6;0;Intelsat
0.98109015;0.0025942;6.3463;59.1935;237.7225;332.823;0;-1.15E-6;0;Intelsat
0.9810853;0.0025924;6.3481;59.1888;237.6404;327.3161;0;-8.8E-7;0;Intelsat
0.98108157;0.0025907;6.3496;59.1848;237.5646;271.1985;0;-6.6E-7;0;Intelsat
0.98107931;0.0025896;6.3506;59.1821;237.5405;119.4317;0;-5.2E-7;0;Intelsat
0.98107754;0.0025899;6.3516;59.1795;237.4903;316.3136;0;-4.0E-7;0;Intelsat
0.9810754;0.002589;6.3534;59.175;237.4269;313.87;0;-2.4E-7;0;Intelsat
0.98107452;0.002589;6.3553;59.1702;237.3897;330.5509;0;-1.4E-7;0;Intelsat
0.98107512;0.0025882;6.357;59.1658;237.3381;326.4025;0;-1.4E-7;0;Intelsat
0.9810771;0.0025873;6.3588;59.1615;237.3035;319.477;0;-2.1E-7;0;Intelsat
0.9810771;0.0025873;6.3588;59.1615;237.3035;319.477;0;-2.1E-7;0;Intelsat
0.98108008;0.0025863;6.3606;59.1572;237.2769;313.9429;0;-3.5E-7;0;Intelsat
0.9810841;0.0025846;6.3624;59.1526;237.2437;308.3977;0;-5.4E-7;0;Intelsat
0.98108554;0.0025842;6.3629;59.1511;237.2276;68.6373;0;-6.2E-7;0;Intelsat
0.98108871;0.0025825;6.3643;59.1479;237.2293;328.1343;0;-7.9E-7;0;Intelsat
0.98109038;0.0025822;6.3649;59.1463;237.213;94.7987;0;-8.8E-7;0;Intelsat
0.98109505;0.0025795;6.3668;59.1416;237.1954;114.5486;0;-1.15E-6;0;Intelsat
0.98109701;0.0025775;6.3677;59.1393;237.2111;291.7088;0;-1.26E-6;0;Intelsat
0.9811007;0.0025744;6.3695;59.1348;237.1949;286.1397;0;-1.48E-6;0;Intelsat
